[{"OBJECT_NAME":"KUIPER-00221","OBJECT_ID":"2025-301Q","EPOCH":"2026-03-07T10:45:09.102528","MEAN_MOTION":14.79935273,"ECCENTRICITY":6.791e-5,"INCLINATION":51.901,"RA_OF_ASC_NODE":90.5179,"ARG_OF_PERICENTER":59.5522,"MEAN_ANOMALY":300.5508,"EPHEMERIS_TYPE":0,"CLASSIFICATION_TYPE":"U","NORAD_CAT_ID":67147,"ELEMENT_SET_NO":999,"REV_AT_EPOCH":1319,"BSTAR":1.4671963e-5,"MEAN_MOTION_DOT":-1.09e-6,"MEAN_MOTION_DDOT":0},{"OBJECT_NAME":"KUIPER-00232","OBJECT_ID":"2025-301R","EPOCH":"2026-03-07T14:00:01.000224","MEAN_MOTION":15.10454022,"ECCENTRICITY":0.00028791,"INCLINATION":51.8839,"RA_OF_ASC_NODE":76.3722,"ARG_OF_PERICENTER":139.0541,"MEAN_ANOMALY":31.9946,"EPHEMERIS_TYPE":0,"CLASSIFICATION_TYPE":"U","NORAD_CAT_ID":67148,"ELEMENT_SET_NO":999,"REV_AT_EPOCH":563,"BSTAR":-0.067334908,"MEAN_MOTION_DOT":-0.01040589,"MEAN_MOTION_DDOT":0},{"OBJECT_NAME":"KUIPER-00241","OBJECT_ID":"2025-301S","EPOCH":"2026-03-07T10:52:50.118240","MEAN_MOTION":14.79904462,"ECCENTRICITY":8.893e-5,"INCLINATION":51.9023,"RA_OF_ASC_NODE":85.5,"ARG_OF_PERICENTER":123.0563,"MEAN_ANOMALY":237.0485,"EPHEMERIS_TYPE":0,"CLASSIFICATION_TYPE":"U","NORAD_CAT_ID":67149,"ELEMENT_SET_NO":999,"REV_AT_EPOCH":1359,"BSTAR":-0.002385241,"MEAN_MOTION_DOT":-0.00018343,"MEAN_MOTION_DDOT":0},{"OBJECT_NAME":"KUIPER-00245","OBJECT_ID":"2025-301T","EPOCH":"2026-03-07T10:41:22.372512","MEAN_MOTION":14.79869542,"ECCENTRICITY":0.00022251,"INCLINATION":51.901,"RA_OF_ASC_NODE":93.0516,"ARG_OF_PERICENTER":101.4398,"MEAN_ANOMALY":258.6815,"EPHEMERIS_TYPE":0,"CLASSIFICATION_TYPE":"U","NORAD_CAT_ID":67150,"ELEMENT_SET_NO":999,"REV_AT_EPOCH":1315,"BSTAR":0.0014720505,"MEAN_MOTION_DOT":0.00011002,"MEAN_MOTION_DDOT":0},{"OBJECT_NAME":"KUIPER-00246","OBJECT_ID":"2025-301U","EPOCH":"2026-03-07T14:00:01.000224","MEAN_MOTION":15.04020065,"ECCENTRICITY":0.00046722,"INCLINATION":51.8889,"RA_OF_ASC_NODE":77.9489,"ARG_OF_PERICENTER":56.5005,"MEAN_ANOMALY":134.6895,"EPHEMERIS_TYPE":0,"CLASSIFICATION_TYPE":"U","NORAD_CAT_ID":67151,"ELEMENT_SET_NO":999,"REV_AT_EPOCH":582,"BSTAR":-0.1419791,"MEAN_MOTION_DOT":-0.0180545,"MEAN_MOTION_DDOT":0},{"OBJECT_NAME":"KUIPER-00247","OBJECT_ID":"2025-301V","EPOCH":"2026-03-07T11:06:56.818368","MEAN_MOTION":15.36729483,"ECCENTRICITY":0.0014385,"INCLINATION":51.8621,"RA_OF_ASC_NODE":76.7288,"ARG_OF_PERICENTER":50.6299,"MEAN_ANOMALY":309.5959,"EPHEMERIS_TYPE":0,"CLASSIFICATION_TYPE":"U","NORAD_CAT_ID":67152,"ELEMENT_SET_NO":999,"REV_AT_EPOCH":1338,"BSTAR":0.00064422798,"MEAN_MOTION_DOT":0.0002323,"MEAN_MOTION_DDOT":0},{"OBJECT_NAME":"KUIPER-00248","OBJECT_ID":"2025-301W","EPOCH":"2026-03-07T07:11:53.955456","MEAN_MOTION":15.3733396,"ECCENTRICITY":0.0011347,"INCLINATION":51.8677,"RA_OF_ASC_NODE":77.1804,"ARG_OF_PERICENTER":35.8421,"MEAN_ANOMALY":324.3325,"EPHEMERIS_TYPE":0,"CLASSIFICATION_TYPE":"U","NORAD_CAT_ID":67153,"ELEMENT_SET_NO":999,"REV_AT_EPOCH":1353,"BSTAR":0.0015776,"MEAN_MOTION_DOT":0.00058802,"MEAN_MOTION_DDOT":0},{"OBJECT_NAME":"KUIPER-00249","OBJECT_ID":"2025-301X","EPOCH":"2026-03-07T09:38:58.288128","MEAN_MOTION":15.38013927,"ECCENTRICITY":0.00105539,"INCLINATION":51.8651,"RA_OF_ASC_NODE":76.3536,"ARG_OF_PERICENTER":36.5006,"MEAN_ANOMALY":323.6698,"EPHEMERIS_TYPE":0,"CLASSIFICATION_TYPE":"U","NORAD_CAT_ID":67154,"ELEMENT_SET_NO":999,"REV_AT_EPOCH":1338,"BSTAR":0.0011342911,"MEAN_MOTION_DOT":0.00043012,"MEAN_MOTION_DDOT":0},{"OBJECT_NAME":"KUIPER-00250","OBJECT_ID":"2025-301Y","EPOCH":"2026-03-07T14:00:01.000224","MEAN_MOTION":14.93019075,"ECCENTRICITY":0.00096221,"INCLINATION":51.9209,"RA_OF_ASC_NODE":79.5079,"ARG_OF_PERICENTER":46.4365,"MEAN_ANOMALY":100.5755,"EPHEMERIS_TYPE":0,"CLASSIFICATION_TYPE":"U","NORAD_CAT_ID":67155,"ELEMENT_SET_NO":999,"REV_AT_EPOCH":499,"BSTAR":-0.11290969,"MEAN_MOTION_DOT":-0.01095242,"MEAN_MOTION_DDOT":0},{"OBJECT_NAME":"KUIPER-00251","OBJECT_ID":"2025-301Z","EPOCH":"2026-03-07T10:04:04.615104","MEAN_MOTION":15.3752503,"ECCENTRICITY":0.00110318,"INCLINATION":51.8665,"RA_OF_ASC_NODE":76.4728,"ARG_OF_PERICENTER":39.897,"MEAN_ANOMALY":320.2826,"EPHEMERIS_TYPE":0,"CLASSIFICATION_TYPE":"U","NORAD_CAT_ID":67156,"ELEMENT_SET_NO":999,"REV_AT_EPOCH":1357,"BSTAR":0.0011653969,"MEAN_MOTION_DOT":0.00043511,"MEAN_MOTION_DDOT":0},{"OBJECT_NAME":"KUIPER-00252","OBJECT_ID":"2025-301AA","EPOCH":"2026-03-07T10:30:05.549472","MEAN_MOTION":15.37258155,"ECCENTRICITY":0.00128043,"INCLINATION":51.8654,"RA_OF_ASC_NODE":76.5856,"ARG_OF_PERICENTER":44.8033,"MEAN_ANOMALY":315.3986,"EPHEMERIS_TYPE":0,"CLASSIFICATION_TYPE":"U","NORAD_CAT_ID":67157,"ELEMENT_SET_NO":999,"REV_AT_EPOCH":1338,"BSTAR":0.0016113059,"MEAN_MOTION_DOT":0.0005996,"MEAN_MOTION_DDOT":0},{"OBJECT_NAME":"KUIPER-00261","OBJECT_ID":"2025-301AB","EPOCH":"2026-03-07T14:00:01.000224","MEAN_MOTION":14.90793471,"ECCENTRICITY":0.00113621,"INCLINATION":51.8973,"RA_OF_ASC_NODE":79.8002,"ARG_OF_PERICENTER":52.9096,"MEAN_ANOMALY":170.3374,"EPHEMERIS_TYPE":0,"CLASSIFICATION_TYPE":"U","NORAD_CAT_ID":67158,"ELEMENT_SET_NO":999,"REV_AT_EPOCH":562,"BSTAR":-0.10759968,"MEAN_MOTION_DOT":-0.00994594,"MEAN_MOTION_DDOT":0},{"OBJECT_NAME":"KUIPER-00265","OBJECT_ID":"2025-301AC","EPOCH":"2026-03-07T10:37:24.941856","MEAN_MOTION":14.79948215,"ECCENTRICITY":0.00010356,"INCLINATION":51.902,"RA_OF_ASC_NODE":95.5482,"ARG_OF_PERICENTER":37.6945,"MEAN_ANOMALY":322.409,"EPHEMERIS_TYPE":0,"CLASSIFICATION_TYPE":"U","NORAD_CAT_ID":67159,"ELEMENT_SET_NO":999,"REV_AT_EPOCH":1315,"BSTAR":0.00075050548,"MEAN_MOTION_DOT":5.507e-5,"MEAN_MOTION_DDOT":0},{"OBJECT_NAME":"KUIPER-00159","OBJECT_ID":"2026-030A","EPOCH":"2026-03-07T14:45:31.940928","MEAN_MOTION":15.356762,"ECCENTRICITY":0.00049245,"INCLINATION":51.8841,"RA_OF_ASC_NODE":229.1721,"ARG_OF_PERICENTER":39.0747,"MEAN_ANOMALY":321.0594,"EPHEMERIS_TYPE":0,"CLASSIFICATION_TYPE":"U","NORAD_CAT_ID":67764,"ELEMENT_SET_NO":999,"REV_AT_EPOCH":477,"BSTAR":0.0012524274,"MEAN_MOTION_DOT":0.00044004,"MEAN_MOTION_DDOT":0},{"OBJECT_NAME":"KUIPER-00160","OBJECT_ID":"2026-030B","EPOCH":"2026-03-07T14:47:36.323232","MEAN_MOTION":15.35497511,"ECCENTRICITY":0.00051312,"INCLINATION":51.8809,"RA_OF_ASC_NODE":229.1719,"ARG_OF_PERICENTER":49.4993,"MEAN_ANOMALY":310.644,"EPHEMERIS_TYPE":0,"CLASSIFICATION_TYPE":"U","NORAD_CAT_ID":67765,"ELEMENT_SET_NO":999,"REV_AT_EPOCH":477,"BSTAR":0.00083623415,"MEAN_MOTION_DOT":0.00029027,"MEAN_MOTION_DDOT":0},{"OBJECT_NAME":"KUIPER-00177","OBJECT_ID":"2026-030C","EPOCH":"2026-03-07T14:28:04.188864","MEAN_MOTION":15.36452255,"ECCENTRICITY":0.00012064,"INCLINATION":51.8828,"RA_OF_ASC_NODE":229.0903,"ARG_OF_PERICENTER":18.1868,"MEAN_ANOMALY":341.9161,"EPHEMERIS_TYPE":0,"CLASSIFICATION_TYPE":"U","NORAD_CAT_ID":67766,"ELEMENT_SET_NO":999,"REV_AT_EPOCH":477,"BSTAR":0.0008882604,"MEAN_MOTION_DOT":0.00031828,"MEAN_MOTION_DDOT":0}]
