KUIPER-00221            
1 67147U 25301Q   26066.44802202 -.00000109  00000+0  14672-4 0  9992
2 67147  51.9010  90.5179 0000679  59.5522 300.5508 14.79935273 13199
KUIPER-00232            
1 67148U 25301R   26066.58334491 -.01040589  00000+0 -67335-1 0  9997
2 67148  51.8839  76.3722 0002879 139.0541  31.9946 15.10454022  5638
KUIPER-00241            
1 67149U 25301S   26066.45335785 -.00018343  00000+0 -23852-2 0  9990
2 67149  51.9023  85.5000 0000889 123.0563 237.0485 14.79904462 13595
KUIPER-00245            
1 67150U 25301T   26066.44539783  .00011002  00000+0  14721-2 0  9993
2 67150  51.9010  93.0516 0002225 101.4398 258.6815 14.79869542 13158
KUIPER-00246            
1 67151U 25301U   26066.58334491 -.01805450  00000+0 -14198+0 0  9994
2 67151  51.8889  77.9489 0004672  56.5005 134.6895 15.04020065  5829
KUIPER-00247            
1 67152U 25301V   26066.46315762  .00023230  00000+0  64423-3 0  9997
2 67152  51.8621  76.7288 0014385  50.6299 309.5959 15.36729483 13389
KUIPER-00248            
1 67153U 25301W   26066.29993004  .00058802  00000+0  15776-2 0  9999
2 67153  51.8677  77.1804 0011347  35.8421 324.3325 15.37333960 13538
KUIPER-00249            
1 67154U 25301X   26066.40206352  .00043012  00000+0  11343-2 0  9999
2 67154  51.8651  76.3536 0010553  36.5006 323.6698 15.38013927 13386
KUIPER-00250            
1 67155U 25301Y   26066.58334491 -.01095242  00000+0 -11291+0 0  9999
2 67155  51.9209  79.5079 0009622  46.4365 100.5755 14.93019075  4990
KUIPER-00251            
1 67156U 25301Z   26066.41949786  .00043511  00000+0  11654-2 0  9996
2 67156  51.8665  76.4728 0011031  39.8970 320.2826 15.37525030 13574
KUIPER-00252            
1 67157U 25301AA  26066.43756423  .00059960  00000+0  16113-2 0  9993
2 67157  51.8654  76.5856 0012804  44.8033 315.3986 15.37258155 13383
KUIPER-00261            
1 67158U 25301AB  26066.58334491 -.00994594  00000+0 -10760+0 0  9999
2 67158  51.8973  79.8002 0011362  52.9096 170.3374 14.90793471  5625
KUIPER-00265            
1 67159U 25301AC  26066.44264979  .00005507  00000+0  75051-3 0  9991
2 67159  51.9020  95.5482 0001035  37.6945 322.4090 14.79948215 13153
KUIPER-00159            
1 67764U 26030A   26066.61495302  .00044004  00000+0  12524-2 0  9998
2 67764  51.8841 229.1721 0004924  39.0747 321.0594 15.35676200  4779
KUIPER-00160            
1 67765U 26030B   26066.61639263  .00029027  00000+0  83623-3 0  9992
2 67765  51.8809 229.1719 0005131  49.4993 310.6440 15.35497511  4770
KUIPER-00177            
1 67766U 26030C   26066.60282626  .00031828  00000+0  88826-3 0  9991
2 67766  51.8828 229.0903 0001206  18.1868 341.9161 15.36452255  4773
